{
  "norad_id": 68822,
  "name": "STARLINK-37462",
  "history": [
    {
      "epoch": "2026-04-27T12:53:20.204160Z",
      "apogee_km": 263.8563647070423,
      "perigee_km": 262.18810550718354,
      "latitude_deg": 4.540298986092417e-05,
      "longitude_deg": -86.16672201859257,
      "height_km": 265.7764790752712,
      "semi_major_axis_km": 6641.159235107112,
      "eccentricity": 0.0001256,
      "inclination_deg": 97.2847,
      "raan_deg": 322.6929,
      "arg_perigee_deg": 57.2678,
      "mean_anomaly_deg": 302.8724,
      "mean_motion_rev_day": 16.04120252
    }
  ]
}