STARLINK-37462          
1 68822U 26089W   26117.53703940 -.01084009  39913-3 -16906-2 0  9995
2 68822  97.2847 322.6929 0001256  57.2678 302.8724 16.04120252   714
